CCSDS_OMM_VERS = 2.0
CREATION_DATE  = 
ORIGINATOR     = 

OBJECT_NAME    = UNKNOWN
OBJECT_ID      = 
CENTER_NAME    = EARTH
REF_FRAME      = TEME
TIME_SYSTEM    = UTC
MEAN_ELEMENT_THEORY = SGP/SGP4

EPOCH          = 2025-11-27T09:05:10.156128
MEAN_MOTION    = 14.34468063
ECCENTRICITY   = .0135481
INCLINATION    = 73.2817
RA_OF_ASC_NODE = 211.1684
ARG_OF_PERICENTER = 338.7315
MEAN_ANOMALY   = 135.1798

EPHEMERIS_TYPE = 0
CLASSIFICATION_TYPE = U
NORAD_CAT_ID   = 82524
ELEMENT_SET_NO = 999
REV_AT_EPOCH   = 57483
BSTAR          = .21729E-2
MEAN_MOTION_DOT = .6763E-4
MEAN_MOTION_DDOT = 0

CCSDS_OMM_VERS = 2.0
CREATION_DATE  = 
ORIGINATOR     = 

OBJECT_NAME    = UNKNOWN
OBJECT_ID      = 
CENTER_NAME    = EARTH
REF_FRAME      = TEME
TIME_SYSTEM    = UTC
MEAN_ELEMENT_THEORY = SGP/SGP4

EPOCH          = 2025-11-23T04:39:52.682400
MEAN_MOTION    = 13.41078967
ECCENTRICITY   = .0236932
INCLINATION    = 99.7939
RA_OF_ASC_NODE = 51.2096
ARG_OF_PERICENTER = 287.9491
MEAN_ANOMALY   = 101.4401

EPHEMERIS_TYPE = 0
CLASSIFICATION_TYPE = U
NORAD_CAT_ID   = 82529
ELEMENT_SET_NO = 999
REV_AT_EPOCH   = 58712
BSTAR          = .98393E-3
MEAN_MOTION_DOT = .597E-5
MEAN_MOTION_DDOT = 0

CCSDS_OMM_VERS = 2.0
CREATION_DATE  = 
ORIGINATOR     = 

OBJECT_NAME    = UNKNOWN
OBJECT_ID      = 
CENTER_NAME    = EARTH
REF_FRAME      = TEME
TIME_SYSTEM    = UTC
MEAN_ELEMENT_THEORY = SGP/SGP4

EPOCH          = 2025-11-24T01:41:36.281184
MEAN_MOTION    = 13.90568170
ECCENTRICITY   = .0012331
INCLINATION    = 99.9870
RA_OF_ASC_NODE = 269.2469
ARG_OF_PERICENTER = 355.8181
MEAN_ANOMALY   = 67.8977

EPHEMERIS_TYPE = 0
CLASSIFICATION_TYPE = U
NORAD_CAT_ID   = 82560
ELEMENT_SET_NO = 999
REV_AT_EPOCH   = 60927
BSTAR          = .15747E-2
MEAN_MOTION_DOT = .1912E-4
MEAN_MOTION_DDOT = 0

CCSDS_OMM_VERS = 2.0
CREATION_DATE  = 
ORIGINATOR     = 

OBJECT_NAME    = UNKNOWN
OBJECT_ID      = 
CENTER_NAME    = EARTH
REF_FRAME      = TEME
TIME_SYSTEM    = UTC
MEAN_ELEMENT_THEORY = SGP/SGP4

EPOCH          = 2025-11-28T00:16:42.989088
MEAN_MOTION    = 14.35659578
ECCENTRICITY   = .0096912
INCLINATION    = 66.7694
RA_OF_ASC_NODE = 186.7702
ARG_OF_PERICENTER = 317.4635
MEAN_ANOMALY   = 41.8986

EPHEMERIS_TYPE = 0
CLASSIFICATION_TYPE = U
NORAD_CAT_ID   = 82597
ELEMENT_SET_NO = 999
REV_AT_EPOCH   = 62686
BSTAR          = .60375E-3
MEAN_MOTION_DOT = .1752E-4
MEAN_MOTION_DDOT = 0

CCSDS_OMM_VERS = 2.0
CREATION_DATE  = 
ORIGINATOR     = 

OBJECT_NAME    = UNKNOWN
OBJECT_ID      = 
CENTER_NAME    = EARTH
REF_FRAME      = TEME
TIME_SYSTEM    = UTC
MEAN_ELEMENT_THEORY = SGP/SGP4

EPOCH          = 2025-11-28T12:19:36.002496
MEAN_MOTION    = 14.49367117
ECCENTRICITY   = .0039462
INCLINATION    = 74.0273
RA_OF_ASC_NODE = 270.3387
ARG_OF_PERICENTER = 218.9992
MEAN_ANOMALY   = 140.8321

EPHEMERIS_TYPE = 0
CLASSIFICATION_TYPE = U
NORAD_CAT_ID   = 82617
ELEMENT_SET_NO = 999
REV_AT_EPOCH   = 63476
BSTAR          = .19521E-3
MEAN_MOTION_DOT = .725E-5
MEAN_MOTION_DDOT = 0

CCSDS_OMM_VERS = 2.0
CREATION_DATE  = 
ORIGINATOR     = 

OBJECT_NAME    = UNKNOWN
OBJECT_ID      = 
CENTER_NAME    = EARTH
REF_FRAME      = TEME
TIME_SYSTEM    = UTC
MEAN_ELEMENT_THEORY = SGP/SGP4

EPOCH          = 2025-11-19T19:16:17.364864
MEAN_MOTION    = 13.16253151
ECCENTRICITY   = .0008339
INCLINATION    = 82.4738
RA_OF_ASC_NODE = 264.9882
ARG_OF_PERICENTER = 144.1062
MEAN_ANOMALY   = 245.1755

EPHEMERIS_TYPE = 0
CLASSIFICATION_TYPE = U
NORAD_CAT_ID   = 82627
ELEMENT_SET_NO = 999
REV_AT_EPOCH   = 57581
BSTAR          = .17039E-2
MEAN_MOTION_DOT = .661E-5
MEAN_MOTION_DDOT = 0

CCSDS_OMM_VERS = 2.0
CREATION_DATE  = 
ORIGINATOR     = 

OBJECT_NAME    = UNKNOWN
OBJECT_ID      = 
CENTER_NAME    = EARTH
REF_FRAME      = TEME
TIME_SYSTEM    = UTC
MEAN_ELEMENT_THEORY = SGP/SGP4

EPOCH          = 2025-11-28T11:53:58.475616
MEAN_MOTION    = 14.07124884
ECCENTRICITY   = .0135894
INCLINATION    = 98.9724
RA_OF_ASC_NODE = 243.1352
ARG_OF_PERICENTER = 277.4781
MEAN_ANOMALY   = 81.0966

EPHEMERIS_TYPE = 0
CLASSIFICATION_TYPE = U
NORAD_CAT_ID   = 82642
ELEMENT_SET_NO = 999
REV_AT_EPOCH   = 61413
BSTAR          = .11785E-2
MEAN_MOTION_DOT = .21E-4
MEAN_MOTION_DDOT = 0

CCSDS_OMM_VERS = 2.0
CREATION_DATE  = 
ORIGINATOR     = 

OBJECT_NAME    = UNKNOWN
OBJECT_ID      = 
CENTER_NAME    = EARTH
REF_FRAME      = TEME
TIME_SYSTEM    = UTC
MEAN_ELEMENT_THEORY = SGP/SGP4

EPOCH          = 2025-11-28T11:00:11.674080
MEAN_MOTION    = 14.20080958
ECCENTRICITY   = .0211715
INCLINATION    = 98.1756
RA_OF_ASC_NODE = 42.4788
ARG_OF_PERICENTER = 77.9421
MEAN_ANOMALY   = 284.5396

EPHEMERIS_TYPE = 0
CLASSIFICATION_TYPE = U
NORAD_CAT_ID   = 82683
ELEMENT_SET_NO = 999
REV_AT_EPOCH   = 46024
BSTAR          = .4668E-3
MEAN_MOTION_DOT = .1205E-4
MEAN_MOTION_DDOT = 0

CCSDS_OMM_VERS = 2.0
CREATION_DATE  = 
ORIGINATOR     = 

OBJECT_NAME    = UNKNOWN
OBJECT_ID      = 
CENTER_NAME    = EARTH
REF_FRAME      = TEME
TIME_SYSTEM    = UTC
MEAN_ELEMENT_THEORY = SGP/SGP4

EPOCH          = 2025-11-28T04:02:45.747456
MEAN_MOTION    = 13.69385986
ECCENTRICITY   = .0043129
INCLINATION    = 100.5315
RA_OF_ASC_NODE = 294.3440
ARG_OF_PERICENTER = 55.4726
MEAN_ANOMALY   = 305.0477

EPHEMERIS_TYPE = 0
CLASSIFICATION_TYPE = U
NORAD_CAT_ID   = 82693
ELEMENT_SET_NO = 999
REV_AT_EPOCH   = 55176
BSTAR          = .36225E-2
MEAN_MOTION_DOT = .312E-4
MEAN_MOTION_DDOT = 0

CCSDS_OMM_VERS = 2.0
CREATION_DATE  = 
ORIGINATOR     = 

OBJECT_NAME    = UNKNOWN
OBJECT_ID      = 
CENTER_NAME    = EARTH
REF_FRAME      = TEME
TIME_SYSTEM    = UTC
MEAN_ELEMENT_THEORY = SGP/SGP4

EPOCH          = 2025-11-24T21:39:32.941440
MEAN_MOTION    = 13.29350172
ECCENTRICITY   = .0684198
INCLINATION    = 61.6125
RA_OF_ASC_NODE = 198.2302
ARG_OF_PERICENTER = 282.9752
MEAN_ANOMALY   = 69.5753

EPHEMERIS_TYPE = 0
CLASSIFICATION_TYPE = U
NORAD_CAT_ID   = 82698
ELEMENT_SET_NO = 999
REV_AT_EPOCH   = 53600
BSTAR          = .87243E-3
MEAN_MOTION_DOT = .1399E-4
MEAN_MOTION_DDOT = 0

CCSDS_OMM_VERS = 2.0
CREATION_DATE  = 
ORIGINATOR     = 

OBJECT_NAME    = UNKNOWN
OBJECT_ID      = 
CENTER_NAME    = EARTH
REF_FRAME      = TEME
TIME_SYSTEM    = UTC
MEAN_ELEMENT_THEORY = SGP/SGP4

EPOCH          = 2025-11-27T12:33:35.185824
MEAN_MOTION    = 12.90540474
ECCENTRICITY   = .0064312
INCLINATION    = 102.1634
RA_OF_ASC_NODE = 173.2113
ARG_OF_PERICENTER = 317.1592
MEAN_ANOMALY   = 42.4499

EPHEMERIS_TYPE = 0
CLASSIFICATION_TYPE = U
NORAD_CAT_ID   = 82708
ELEMENT_SET_NO = 999
REV_AT_EPOCH   = 52155
BSTAR          = .35699E-2
MEAN_MOTION_DOT = .896E-5
MEAN_MOTION_DDOT = 0

CCSDS_OMM_VERS = 2.0
CREATION_DATE  = 
ORIGINATOR     = 

OBJECT_NAME    = UNKNOWN
OBJECT_ID      = 
CENTER_NAME    = EARTH
REF_FRAME      = TEME
TIME_SYSTEM    = UTC
MEAN_ELEMENT_THEORY = SGP/SGP4

EPOCH          = 2025-11-17T06:43:41.776896
MEAN_MOTION    = 12.17733009
ECCENTRICITY   = .082992
INCLINATION    = 67.9666
RA_OF_ASC_NODE = 189.9070
ARG_OF_PERICENTER = 28.3980
MEAN_ANOMALY   = 335.9760

EPHEMERIS_TYPE = 0
CLASSIFICATION_TYPE = U
NORAD_CAT_ID   = 82729
ELEMENT_SET_NO = 999
REV_AT_EPOCH   = 53210
BSTAR          = .29051E-2
MEAN_MOTION_DOT = .829E-5
MEAN_MOTION_DDOT = 0

