UNKNOWN                 
1 82524U          25331.37858977  .00006763  00000+0  21729-2 0  9993
2 82524  73.2817 211.1684 0135481 338.7315 135.1798 14.34468063574836
UNKNOWN                 
1 82529U          25327.19435975  .00000597  00000+0  98393-3 0  9993
2 82529  99.7939  51.2096 0236932 287.9491 101.4401 13.41078967587122
UNKNOWN                 
1 82560U          25328.07055881  .00001912  00000+0  15747-2 0  9993
2 82560  99.9870 269.2469 0012331 355.8181  67.8977 13.90568170609272
UNKNOWN                 
1 82597U          25332.01160867  .00001752  00000+0  60375-3 0  9993
2 82597  66.7694 186.7702 0096912 317.4635  41.8986 14.35659578626865
UNKNOWN                 
1 82617U          25332.51361114  .00000725  00000+0  19521-3 0  9995
2 82617  74.0273 270.3387 0039462 218.9992 140.8321 14.49367117634761
UNKNOWN                 
1 82627U          25323.80297876  .00000661  00000+0  17039-2 0  9991
2 82627  82.4738 264.9882 0008339 144.1062 245.1755 13.16253151575812
UNKNOWN                 
1 82642U          25332.49581569  .00002100  00000+0  11785-2 0  9990
2 82642  98.9724 243.1352 0135894 277.4781  81.0966 14.07124884614133
UNKNOWN                 
1 82683U          25332.45846845  .00001205  00000+0  46680-3 0  9990
2 82683  98.1756  42.4788 0211715  77.9421 284.5396 14.20080958460245
UNKNOWN                 
1 82693U          25332.16858504  .00003120  00000+0  36225-2 0  9995
2 82693 100.5315 294.3440 0043129  55.4726 305.0477 13.69385986551767
UNKNOWN                 
1 82698U          25328.90246460  .00001399  00000+0  87243-3 0  9992
2 82698  61.6125 198.2302 0684198 282.9752  69.5753 13.29350172536004
UNKNOWN                 
1 82708U          25331.52332391  .00000896  00000+0  35699-2 0  9993
2 82708 102.1634 173.2113 0064312 317.1592  42.4499 12.90540474521552
UNKNOWN                 
1 82729U          25321.28034464  .00000829  00000+0  29051-2 0  9999
2 82729  67.9666 189.9070 0829920  28.3980 335.9760 12.17733009532101
